CTC1_L_00255001-01
1 10000U 23718XL  26075.70032407  .00000000  00000+0  00000-0 0  9994
2 10000  95.0000   0.0000 0000000   0.0000   0.0000 15.48880433    12
CTC1_L_00255001-02
1 10001U 24430JY  26075.70032407  .00000000  00000+0  00000-0 0  9997
2 10001  95.0000   0.0000 0000000   0.0000  90.0000 15.48880433    12
CTC1_L_00255001-03
1 10002U 24914BO  26075.70032407  .00000000  00000+0  00000-0 0  9995
2 10002  95.0000   0.0000 0000000   0.0000 180.0000 15.48880433    13
CTC1_L_00255001-04
1 10003U 26102ZK  26075.70032407  .00000000  00000+0  00000-0 0  9997
2 10003  95.0000   0.0000 0000000   0.0000 270.0000 15.48880433    14
CTC1_L_00255002-01
1 10004U 25936FJ  26075.70032407  .00000000  00000+0  00000-0 0  9992
2 10004  95.0000  12.0000 0000000   0.0000  12.0000 15.48880433    12
CTC1_L_00255002-02
1 10005U 23289YK  26075.70032407  .00000000  00000+0  00000-0 0  9992
2 10005  95.0000  12.0000 0000000   0.0000 102.0000 15.48880433    13
CTC1_L_00255002-03
1 10006U 23787UK  26075.70032407  .00000000  00000+0  00000-0 0  9996
2 10006  95.0000  12.0000 0000000   0.0000 192.0000 15.48880433    13
CTC1_L_00255002-04
1 10007U 26119PF  26075.70032407  .00000000  00000+0  00000-0 0  9999
2 10007  95.0000  12.0000 0000000   0.0000 282.0000 15.48880433    14
CTC1_L_00255003-01
1 10008U 22012LR  26075.70032407  .00000000  00000+0  00000-0 0  9998
2 10008  95.0000  24.0000 0000000   0.0000  24.0000 15.48880433    12
CTC1_L_00255003-02
1 10009U 23937FY  26075.70032407  .00000000  00000+0  00000-0 0  9996
2 10009  95.0000  24.0000 0000000   0.0000 114.0000 15.48880433    13
CTC1_L_00255003-03
1 10010U 24468GM  26075.70032407  .00000000  00000+0  00000-0 0  9998
2 10010  95.0000  24.0000 0000000   0.0000 204.0000 15.48880433    15
CTC1_L_00255003-04
1 10011U 25217FN  26075.70032407  .00000000  00000+0  00000-0 0  9992
2 10011  95.0000  24.0000 0000000   0.0000 294.0000 15.48880433    15
CTC1_L_00255004-01
1 10012U 24747DO  26075.70032407  .00000000  00000+0  00000-0 0  9990
2 10012  95.0000  36.0000 0000000   0.0000  36.0000 15.48880433    13
CTC1_L_00255004-02
1 10013U 22768IC  26075.70032407  .00000000  00000+0  00000-0 0  9992
2 10013  95.0000  36.0000 0000000   0.0000 126.0000 15.48880433    14
CTC1_L_00255004-03
1 10014U 22274CP  26075.70032407  .00000000  00000+0  00000-0 0  9995
2 10014  95.0000  36.0000 0000000   0.0000 216.0000 15.48880433    15
CTC1_L_00255004-04
1 10015U 26240Z   26075.70032407  .00000000  00000+0  00000-0 0  9993
2 10015  95.0000  36.0000 0000000   0.0000 306.0000 15.48880433    16
CTC1_L_00255005-01
1 10016U 26717WN  26075.70032407  .00000000  00000+0  00000-0 0  9993
2 10016  95.0000  48.0000 0000000   0.0000  48.0000 15.48880433    13
CTC1_L_00255005-02
1 10017U 26461E   26075.70032407  .00000000  00000+0  00000-0 0  9990
2 10017  95.0000  48.0000 0000000   0.0000 138.0000 15.48880433    14
CTC1_L_00255005-03
1 10018U 22210ZZ  26075.70032407  .00000000  00000+0  00000-0 0  9999
2 10018  95.0000  48.0000 0000000   0.0000 228.0000 15.48880433    15
CTC1_L_00255005-04
1 10019U 25474JQ  26075.70032407  .00000000  00000+0  00000-0 0  9995
2 10019  95.0000  48.0000 0000000   0.0000 318.0000 15.48880433    16
CTC1_L_00255006-01
1 10020U 22278P   26075.70032407  .00000000  00000+0  00000-0 0  9996
2 10020  95.0000  60.0000 0000000   0.0000  60.0000 15.48880433    16
CTC1_L_00255006-02
1 10021U 22434OJ  26075.70032407  .00000000  00000+0  00000-0 0  9991
2 10021  95.0000  60.0000 0000000   0.0000 150.0000 15.48880433    17
CTC1_L_00255006-03
1 10022U 25559XN  26075.70032407  .00000000  00000+0  00000-0 0  9993
2 10022  95.0000  60.0000 0000000   0.0000 240.0000 15.48880433    18
CTC1_L_00255006-04
1 10023U 23483LK  26075.70032407  .00000000  00000+0  00000-0 0  9998
2 10023  95.0000  60.0000 0000000   0.0000 330.0000 15.48880433    19
CTC1_L_00255007-01
1 10024U 24945BP  26075.70032407  .00000000  00000+0  00000-0 0  9993
2 10024  95.0000  72.0000 0000000   0.0000  72.0000 15.48880433    16
CTC1_L_00255007-02
1 10025U 24281LU  26075.70032407  .00000000  00000+0  00000-0 0  9997
2 10025  95.0000  72.0000 0000000   0.0000 162.0000 15.48880433    17
CTC1_L_00255007-03
1 10026U 22424FK  26075.70032407  .00000000  00000+0  00000-0 0  9995
2 10026  95.0000  72.0000 0000000   0.0000 252.0000 15.48880433    18
CTC1_L_00255007-04
1 10027U 26753QF  26075.70032407  .00000000  00000+0  00000-0 0  9995
2 10027  95.0000  72.0000 0000000   0.0000 342.0000 15.48880433    19
CTC1_L_00255008-01
1 10028U 23255MV  26075.70032407  .00000000  00000+0  00000-0 0  9990
2 10028  95.0000  84.0000 0000000   0.0000  84.0000 15.48880433    16
CTC1_L_00255008-02
1 10029U 26269ON  26075.70032407  .00000000  00000+0  00000-0 0  9999
2 10029  95.0000  84.0000 0000000   0.0000 174.0000 15.48880433    17
CTC1_L_00255008-03
1 10030U 22169NN  26075.70032407  .00000000  00000+0  00000-0 0  9996
2 10030  95.0000  84.0000 0000000   0.0000 264.0000 15.48880433    19
CTC1_L_00255008-04
1 10031U 24815DJ  26075.70032407  .00000000  00000+0  00000-0 0  9997
2 10031  95.0000  84.0000 0000000   0.0000 354.0000 15.48880433    10
CTC1_L_00255009-01
1 10032U 23903HV  26075.70032407  .00000000  00000+0  00000-0 0  9995
2 10032  95.0000  96.0000 0000000   0.0000  96.0000 15.48880433    17
CTC1_L_00255009-02
1 10033U 23343CC  26075.70032407  .00000000  00000+0  00000-0 0  9994
2 10033  95.0000  96.0000 0000000   0.0000 186.0000 15.48880433    18
CTC1_L_00255009-03
1 10034U 24840MI  26075.70032407  .00000000  00000+0  00000-0 0  9998
2 10034  95.0000  96.0000 0000000   0.0000 276.0000 15.48880433    19
CTC1_L_00255009-04
1 10035U 24519OO  26075.70032407  .00000000  00000+0  00000-0 0  9992
2 10035  95.0000  96.0000 0000000   0.0000   6.0000 15.48880433    11
CTC1_L_00255010-01
1 10036U 23233TS  26075.70032407  .00000000  00000+0  00000-0 0  9995
2 10036  95.0000 108.0000 0000000   0.0000 108.0000 15.48880433    19
CTC1_L_00255010-02
1 10037U 22719CF  26075.70032407  .00000000  00000+0  00000-0 0  9994
2 10037  95.0000 108.0000 0000000   0.0000 198.0000 15.48880433    19
CTC1_L_00255010-03
1 10038U 22561QO  26075.70032407  .00000000  00000+0  00000-0 0  9990
2 10038  95.0000 108.0000 0000000   0.0000 288.0000 15.48880433    10
CTC1_L_00255010-04
1 10039U 23722CP  26075.70032407  .00000000  00000+0  00000-0 0  9991
2 10039  95.0000 108.0000 0000000   0.0000  18.0000 15.48880433    12
CTC1_L_00255011-01
1 10040U 26135SV  26075.70032407  .00000000  00000+0  00000-0 0  9994
2 10040  95.0000 120.0000 0000000   0.0000 120.0000 15.48880433    12
CTC1_L_00255011-02
1 10041U 23560LX  26075.70032407  .00000000  00000+0  00000-0 0  9994
2 10041  95.0000 120.0000 0000000   0.0000 210.0000 15.48880433    13
CTC1_L_00255011-03
1 10042U 25695EB  26075.70032407  .00000000  00000+0  00000-0 0  9996
2 10042  95.0000 120.0000 0000000   0.0000 300.0000 15.48880433    14
CTC1_L_00255011-04
1 10043U 26474T   26075.70032407  .00000000  00000+0  00000-0 0  9993
2 10043  95.0000 120.0000 0000000   0.0000  30.0000 15.48880433    15
CTC1_L_00255012-01
1 10044U 22053HP  26075.70032407  .00000000  00000+0  00000-0 0  9993
2 10044  95.0000 132.0000 0000000   0.0000 132.0000 15.48880433    12
CTC1_L_00255012-02
1 10045U 25924SN  26075.70032407  .00000000  00000+0  00000-0 0  9994
2 10045  95.0000 132.0000 0000000   0.0000 222.0000 15.48880433    13
CTC1_L_00255012-03
1 10046U 23249YF  26075.70032407  .00000000  00000+0  00000-0 0  9993
2 10046  95.0000 132.0000 0000000   0.0000 312.0000 15.48880433    14
CTC1_L_00255012-04
1 10047U 22676VQ  26075.70032407  .00000000  00000+0  00000-0 0  9997
2 10047  95.0000 132.0000 0000000   0.0000  42.0000 15.48880433    15
CTC1_L_00255013-01
1 10048U 25680ZB  26075.70032407  .00000000  00000+0  00000-0 0  9996
2 10048  95.0000 144.0000 0000000   0.0000 144.0000 15.48880433    12
CTC1_L_00255013-02
1 10049U 24831YX  26075.70032407  .00000000  00000+0  00000-0 0  9994
2 10049  95.0000 144.0000 0000000   0.0000 234.0000 15.48880433    13
CTC1_L_00255013-03
1 10050U 24666ER  26075.70032407  .00000000  00000+0  00000-0 0  9992
2 10050  95.0000 144.0000 0000000   0.0000 324.0000 15.48880433    15
CTC1_L_00255013-04
1 10051U 25500VS  26075.70032407  .00000000  00000+0  00000-0 0  9991
2 10051  95.0000 144.0000 0000000   0.0000  54.0000 15.48880433    16
CTC1_L_00255014-01
1 10052U 26608GX  26075.70032407  .00000000  00000+0  00000-0 0  9992
2 10052  95.0000 156.0000 0000000   0.0000 156.0000 15.48880433    13
CTC1_L_00255014-02
1 10053U 26729BY  26075.70032407  .00000000  00000+0  00000-0 0  9997
2 10053  95.0000 156.0000 0000000   0.0000 246.0000 15.48880433    14
CTC1_L_00255014-03
1 10054U 22237TZ  26075.70032407  .00000000  00000+0  00000-0 0  9998
2 10054  95.0000 156.0000 0000000   0.0000 336.0000 15.48880433    15
CTC1_L_00255014-04
1 10055U 26284RD  26075.70032407  .00000000  00000+0  00000-0 0  9995
2 10055  95.0000 156.0000 0000000   0.0000  66.0000 15.48880433    16
CTC1_L_00255015-01
1 10056U 22535GM  26075.70032407  .00000000  00000+0  00000-0 0  9991
2 10056  95.0000 168.0000 0000000   0.0000 168.0000 15.48880433    13
CTC1_L_00255015-02
1 10057U 24717HQ  26075.70032407  .00000000  00000+0  00000-0 0  9996
2 10057  95.0000 168.0000 0000000   0.0000 258.0000 15.48880433    14
CTC1_L_00255015-03
1 10058U 22701YA  26075.70032407  .00000000  00000+0  00000-0 0  9998
2 10058  95.0000 168.0000 0000000   0.0000 348.0000 15.48880433    15
CTC1_L_00255015-04
1 10059U 26589S   26075.70032407  .00000000  00000+0  00000-0 0  9997
2 10059  95.0000 168.0000 0000000   0.0000  78.0000 15.48880433    16
CTC1_L_00255016-01
1 10060U 26482BC  26075.70032407  .00000000  00000+0  00000-0 0  9991
2 10060  95.0000 180.0000 0000000   0.0000 180.0000 15.48880433    16
CTC1_L_00255016-02
1 10061U 23790DQ  26075.70032407  .00000000  00000+0  00000-0 0  9991
2 10061  95.0000 180.0000 0000000   0.0000 270.0000 15.48880433    17
